HAWK-6A                 
1 55327U 23011D   26095.18018435  .00008260  00000+0  35931-3 0  9990
2 55327  40.5005  56.1448 0004303 240.4094 119.6286 15.22272840176728
HAWK-7A                 
1 56191U 23054P   26095.23935023  .00009631  00000+0  37021-3 0  9999
2 56191  97.2791 344.4347 0001786 338.3702  21.7461 15.26621267165894
HAWK-7B                 
1 56193U 23054R   26095.23926448  .00008250  00000+0  31769-3 0  9991
2 56193  97.2816 342.6715 0001319   3.8424 356.2825 15.26607080165897
HAWK-7C                 
1 56200U 23054Y   26095.23915827  .00008083  00000+0  31135-3 0  9990
2 56200  97.2792 343.4634 0000967 338.0588  22.0610 15.26603688165890
