[{"OBJECT_NAME":"HAWK-6A","OBJECT_ID":"2023-011D","EPOCH":"2026-04-05T04:19:27.927840","MEAN_MOTION":15.2227284,"ECCENTRICITY":0.00043033,"INCLINATION":40.5005,"RA_OF_ASC_NODE":56.1448,"ARG_OF_PERICENTER":240.4094,"MEAN_ANOMALY":119.6286,"EPHEMERIS_TYPE":0,"CLASSIFICATION_TYPE":"U","NORAD_CAT_ID":55327,"ELEMENT_SET_NO":999,"REV_AT_EPOCH":17672,"BSTAR":0.00035930847,"MEAN_MOTION_DOT":8.26e-5,"MEAN_MOTION_DDOT":0},{"OBJECT_NAME":"HAWK-7A","OBJECT_ID":"2023-054P","EPOCH":"2026-04-05T05:44:39.859872","MEAN_MOTION":15.26621267,"ECCENTRICITY":0.00017866,"INCLINATION":97.2791,"RA_OF_ASC_NODE":344.4347,"ARG_OF_PERICENTER":338.3702,"MEAN_ANOMALY":21.7461,"EPHEMERIS_TYPE":0,"CLASSIFICATION_TYPE":"U","NORAD_CAT_ID":56191,"ELEMENT_SET_NO":999,"REV_AT_EPOCH":16589,"BSTAR":0.00037021083,"MEAN_MOTION_DOT":9.631e-5,"MEAN_MOTION_DDOT":0},{"OBJECT_NAME":"HAWK-7B","OBJECT_ID":"2023-054R","EPOCH":"2026-04-05T05:44:32.451072","MEAN_MOTION":15.2660708,"ECCENTRICITY":0.0001319,"INCLINATION":97.2816,"RA_OF_ASC_NODE":342.6715,"ARG_OF_PERICENTER":3.8424,"MEAN_ANOMALY":356.2825,"EPHEMERIS_TYPE":0,"CLASSIFICATION_TYPE":"U","NORAD_CAT_ID":56193,"ELEMENT_SET_NO":999,"REV_AT_EPOCH":16589,"BSTAR":0.00031769421,"MEAN_MOTION_DOT":8.25e-5,"MEAN_MOTION_DDOT":0},{"OBJECT_NAME":"HAWK-7C","OBJECT_ID":"2023-054Y","EPOCH":"2026-04-05T05:44:23.274528","MEAN_MOTION":15.26603688,"ECCENTRICITY":9.674e-5,"INCLINATION":97.2792,"RA_OF_ASC_NODE":343.4634,"ARG_OF_PERICENTER":338.0588,"MEAN_ANOMALY":22.061,"EPHEMERIS_TYPE":0,"CLASSIFICATION_TYPE":"U","NORAD_CAT_ID":56200,"ELEMENT_SET_NO":999,"REV_AT_EPOCH":16589,"BSTAR":0.00031134908,"MEAN_MOTION_DOT":8.083e-5,"MEAN_MOTION_DDOT":0}]
